{
  "norad_id": 53432,
  "name": "STARLINK-4557",
  "history": [
    {
      "epoch": "2026-03-28T13:04:28.547904Z",
      "apogee_km": 540.652791027559,
      "perigee_km": 538.7628358245302,
      "latitude_deg": -4.614592410457972e-05,
      "longitude_deg": -2.846674300268844,
      "height_km": 540.6418954084841,
      "semi_major_axis_km": 6917.844813426044,
      "eccentricity": 0.0001366,
      "inclination_deg": 53.2191,
      "raan_deg": 19.236,
      "arg_perigee_deg": 92.3162,
      "mean_anomaly_deg": 267.7986,
      "mean_motion_rev_day": 15.08851639
    },
    {
      "epoch": "2026-03-29T04:58:19.478496Z",
      "apogee_km": 540.6719975026417,
      "perigee_km": 538.7502192981274,
      "latitude_deg": 6.206290618749037e-06,
      "longitude_deg": 115.0640674163352,
      "height_km": 540.6764345875827,
      "semi_major_axis_km": 6917.848108400384,
      "eccentricity": 0.0001389,
      "inclination_deg": 53.2188,
      "raan_deg": 16.2618,
      "arg_perigee_deg": 94.148,
      "mean_anomaly_deg": 265.9671,
      "mean_motion_rev_day": 15.08850561
    },
    {
      "epoch": "2026-03-30T04:49:09.146784Z",
      "apogee_km": 540.7284825286306,
      "perigee_km": 538.857874208401,
      "latitude_deg": -1.813597495865578e-05,
      "longitude_deg": 111.91933192117783,
      "height_km": 540.5928035183605,
      "semi_major_axis_km": 6917.930178368516,
      "eccentricity": 0.0001352,
      "inclination_deg": 53.219,
      "raan_deg": 11.8034,
      "arg_perigee_deg": 84.0921,
      "mean_anomaly_deg": 276.0225,
      "mean_motion_rev_day": 15.08823711
    },
    {
      "epoch": "2026-03-30T04:49:09.147648Z",
      "apogee_km": 540.7285517079335,
      "perigee_km": 538.8578050290989,
      "latitude_deg": -1.9054344450410893e-05,
      "longitude_deg": 111.91932762853334,
      "height_km": 540.5927963979003,
      "semi_major_axis_km": 6917.930178368516,
      "eccentricity": 0.00013521,
      "inclination_deg": 53.219,
      "raan_deg": 11.8034,
      "arg_perigee_deg": 84.0921,
      "mean_anomaly_deg": 276.0225,
      "mean_motion_rev_day": 15.08823711
    }
  ]
}